[{"OBJECT_NAME":"STARLINK-2190","OBJECT_ID":"2021-041M","EPOCH":"2026-03-09T09:31:30.960768","MEAN_MOTION":15.30205507,"ECCENTRICITY":0.00012718,"INCLINATION":53.1594,"RA_OF_ASC_NODE":128.0542,"ARG_OF_PERICENTER":88.6224,"MEAN_ANOMALY":271.4923,"EPHEMERIS_TYPE":0,"CLASSIFICATION_TYPE":"U","NORAD_CAT_ID":48564,"ELEMENT_SET_NO":999,"REV_AT_EPOCH":26523,"BSTAR":8.3435407e-5,"MEAN_MOTION_DOT":2.113e-5,"MEAN_MOTION_DDOT":0},{"OBJECT_NAME":"CZ-4B DEB","OBJECT_ID":"2010-051E","EPOCH":"2026-03-08T22:01:50.125728","MEAN_MOTION":15.23766972,"ECCENTRICITY":0.00561086,"INCLINATION":97.769,"RA_OF_ASC_NODE":240.5013,"ARG_OF_PERICENTER":301.1291,"MEAN_ANOMALY":58.4449,"EPHEMERIS_TYPE":0,"CLASSIFICATION_TYPE":"U","NORAD_CAT_ID":38184,"ELEMENT_SET_NO":999,"REV_AT_EPOCH":82066,"BSTAR":0.0024566319,"MEAN_MOTION_DOT":0.00062123,"MEAN_MOTION_DDOT":0}]
